{
  "norad_id": 66438,
  "name": "STARLINK-34681",
  "history": [
    {
      "epoch": "2026-03-28T16:07:47.624736",
      "apogee_km": 483.67421638242286,
      "perigee_km": 482.26741483591013,
      "latitude_deg": 24.358927588241,
      "longitude_deg": 168.31958304019645,
      "semi_major_axis_km": 6861.107815609166,
      "eccentricity": 0.00010252,
      "inclination_deg": 43.0028,
      "raan_deg": 167.206,
      "arg_perigee_deg": 271.5713,
      "mean_anomaly_deg": 88.5021,
      "mean_motion_rev_day": 15.27606143
    }
  ]
}