{"fetched_at":"2026-03-29T16:36:15Z","count":15609,"tles":[{"name":"STARLINK-34681","line1":"1 66438U 25259S   26087.67207899  .00018078  00000+0  66433-3 0  9999","line2":"2 66438  43.0028 167.2060 0001025 271.5713  88.5021 15.27606143 22285","category":"Starlink"}]}